CCSDS_OMM_VERS,COMMENT,CREATION_DATE,ORIGINATOR,OBJECT_NAME,OBJECT_ID,CENTER_NAME,REF_FRAME,TIME_SYSTEM,MEAN_ELEMENT_THEORY,EPOCH,MEAN_MOTION,ECCENTRICITY,INCLINATION,RA_OF_ASC_NODE,ARG_OF_PERICENTER,MEAN_ANOMALY,EPHEMERIS_TYPE,CLASSIFICATION_TYPE,NORAD_CAT_ID,ELEMENT_SET_NO,REV_AT_EPOCH,BSTAR,MEAN_MOTION_DOT,MEAN_MOTION_DDOT,SEMIMAJOR_AXIS,PERIOD,APOAPSIS,PERIAPSIS,OBJECT_TYPE,RCS_SIZE,COUNTRY_CODE,LAUNCH_DATE,SITE,DECAY_DATE,FILE,GP_ID,TLE_LINE0,TLE_LINE1,TLE_LINE2
"2.0","GENERATED VIA SPACE-TRACK.ORG API","2020-01-31T10:50:14","18 SPCS","IRIDIUM 176","2019-002B","EARTH","TEME","UTC","SGP4","2020-01-31T07:31:25.397760","14.72256391","0.00020740","86.6088","246.7895","89.6302","270.5153","0","U","43923","999","5660","0.00001641300000","0.00000128","0.0000000000000","7032.011","97.809","655.334","652.417","PAYLOAD","LARGE","US","2019-01-11","AFWTR","","2692678","147744061","0 IRIDIUM 176","1 43923U 19002B   20031.31348840  .00000128  00000-0  16413-4 0  9990","2 43923  86.6088 246.7895 0002074  89.6302 270.5153 14.72256391 56601"
"2.0","GENERATED VIA SPACE-TRACK.ORG API","2020-01-30T12:50:17","18 SPCS","SL-18 DEB","1993-014BJ","EARTH","TEME","UTC","SGP4","2020-01-30T10:18:32.511744","14.80013870","0.00650560","75.7403","80.4211","211.0919","148.6411","0","U","35359","999","66237","0.00035995000000","0.00002804","0.0000000000000","7007.417","97.296","674.869","583.694","DEBRIS","SMALL","CIS","1993-03-25","PKMTR","","2692526","147662613","0 SL-18 DEB","1 35359U 93014BJ  20030.42954296  .00002804  00000-0  35995-3 0  9996","2 35359  75.7403  80.4211 0065056 211.0919 148.6411 14.80013870662375"
"2.0","GENERATED VIA SPACE-TRACK.ORG API","2020-01-30T19:47:50","18 SPCS","IRIDIUM 176","2019-002B","EARTH","TEME","UTC","SGP4","2020-01-30T02:09:42.278688","14.72256118","0.00020710","86.6090","247.3009","89.1269","271.0185","0","U","43923","999","5642","0.00001531300000","0.00000121","0.0000000000000","7032.011","97.809","655.333","652.420","PAYLOAD","LARGE","US","2019-01-11","AFWTR","","2692564","147682488","0 IRIDIUM 176","1 43923U 19002B   20030.09007267 +.00000121 +00000-0 +15313-4 0  9990","2 43923 086.6090 247.3009 0002071 089.1269 271.0185 14.72256118056420"
"2.0","GENERATED VIA SPACE-TRACK.ORG API","2020-01-29T19:12:35","18 SPCS","SL-18 DEB","1993-014BJ","EARTH","TEME","UTC","SGP4","2020-01-29T09:58:24.072960","14.80008403","0.00650990","75.7402","82.2099","213.5074","146.1987","0","U","35359","999","66156","0.00036249000000","0.00002823","0.0000000000000","7007.434","97.296","674.917","583.681","DEBRIS","SMALL","CIS","1993-03-25","PKMTR","","2692042","147625131","0 SL-18 DEB","1 35359U 93014BJ  20029.41555640 +.00002823 +00000-0 +36249-3 0  9997","2 35359 075.7402 082.2099 0065099 213.5074 146.1987 14.80008403661561"
"2.0","GENERATED VIA SPACE-TRACK.ORG API","2020-01-29T14:20:14","18 SPCS","IRIDIUM 176","2019-002B","EARTH","TEME","UTC","SGP4","2020-01-29T08:13:05.915712","14.72255982","0.00020740","86.6090","247.6134","88.8638","271.2816","0","U","43923","999","5631","0.00001647800000","0.00000129","0.0000000000000","7032.012","97.809","655.335","652.418","PAYLOAD","LARGE","US","2019-01-11","AFWTR","","2691893","147609485","0 IRIDIUM 176","1 43923U 19002B   20029.34242958  .00000129  00000-0  16478-4 0  9995","2 43923  86.6090 247.6134 0002074  88.8638 271.2816 14.72255982 56310"
"2.0","GENERATED VIA SPACE-TRACK.ORG API","2020-01-29T02:12:46","18 SPCS","IRIDIUM 176","2019-002B","EARTH","TEME","UTC","SGP4","2020-01-28T19:10:06.740832","14.72255857","0.00020740","86.6090","247.8407","88.6311","271.5143","0","U","43923","999","5623","0.00001678500000","0.00000131","0.0000000000000","7032.012","97.809","655.336","652.419","PAYLOAD","LARGE","US","2019-01-11","AFWTR","","2691723","147604662","0 IRIDIUM 176","1 43923U 19002B   20028.79868913 +.00000131 +00000-0 +16785-4 0  9992","2 43923 086.6090 247.8407 0002074 088.6311 271.5143 14.72255857056239"
"2.0","GENERATED VIA SPACE-TRACK.ORG API","2020-01-28T18:30:32","18 SPCS","IRIDIUM 176","2019-002B","EARTH","TEME","UTC","SGP4","2020-01-28T14:16:29.551872","14.72255823","0.00020750","86.6090","247.9259","88.4298","271.7157","0","U","43923","999","5620","0.00001711900000","0.00000133","0.0000000000000","7032.012","97.809","655.336","652.418","PAYLOAD","LARGE","US","2019-01-11","AFWTR","","2691543","147503595","0 IRIDIUM 176","1 43923U 19002B   20028.59478648 +.00000133 +00000-0 +17119-4 0  9996","2 43923 086.6090 247.9259 0002075 088.4298 271.7157 14.72255823056205"
"2.0","GENERATED VIA SPACE-TRACK.ORG API","2020-01-28T14:50:17","18 SPCS","SL-18 DEB","1993-014BJ","EARTH","TEME","UTC","SGP4","2020-01-28T11:15:35.927712","14.80002374","0.00651320","75.7402","83.8796","215.7667","143.9149","0","U","35359","999","66208","0.00032916000000","0.00002562","0.0000000000000","7007.453","97.297","674.959","583.677","DEBRIS","SMALL","CIS","1993-03-25","PKMTR","","2691476","147483326","0 SL-18 DEB","1 35359U 93014BJ  20028.46916583  .00002562  00000-0  32916-3 0  9995","2 35359  75.7402  83.8796 0065132 215.7667 143.9149 14.80002374662086"
"2.0","GENERATED VIA SPACE-TRACK.ORG API","2020-01-28T06:30:16","18 SPCS","IRIDIUM 176","2019-002B","EARTH","TEME","UTC","SGP4","2020-01-28T02:51:22.768128","14.72255717","0.00020710","86.6091","248.1248","88.2737","271.8717","0","U","43923","999","5613","0.00001702500000","0.00000132","0.0000000000000","7032.013","97.809","655.334","652.421","PAYLOAD","LARGE","US","2019-01-11","AFWTR","","2691173","147476727","0 IRIDIUM 176","1 43923U 19002B   20028.11901352  .00000132  00000-0  17025-4 0  9992","2 43923  86.6091 248.1248 0002071  88.2737 271.8717 14.72255717 56136"
"2.0","GENERATED VIA SPACE-TRACK.ORG API","2020-01-28T02:48:37","18 SPCS","SL-18 DEB","1993-014BJ","EARTH","TEME","UTC","SGP4","2020-01-27T20:39:30.515040","14.79999376","0.00651470","75.7402","84.9528","217.2161","142.4501","0","U","35359","999","66133","0.00033091000000","0.00002575","0.0000000000000","7007.463","97.297","674.979","583.676","DEBRIS","SMALL","CIS","1993-03-25","PKMTR","","2691141","147449432","0 SL-18 DEB","1 35359U 93014BJ  20027.86076985 +.00002575 +00000-0 +33091-3 0  9990","2 35359 075.7402 084.9528 0065147 217.2161 142.4501 14.79999376661331"
"2.0","GENERATED VIA SPACE-TRACK.ORG API","2020-01-28T02:48:37","18 SPCS","IRIDIUM 176","2019-002B","EARTH","TEME","UTC","SGP4","2020-01-27T17:04:08.381568","14.72255631","0.00020730","86.6092","248.2952","88.1939","271.9516","0","U","43923","999","5607","0.00001755800000","0.00000135","0.0000000000000","7032.013","97.809","655.336","652.420","PAYLOAD","LARGE","US","2019-01-11","AFWTR","","2691141","147455777","0 IRIDIUM 176","1 43923U 19002B   20027.71120812 +.00000135 +00000-0 +17558-4 0  9995","2 43923 086.6092 248.2952 0002073 088.1939 271.9516 14.72255631056071"
"2.0","GENERATED VIA SPACE-TRACK.ORG API","2020-01-27T14:50:16","18 SPCS","SL-18 DEB","1993-014BJ","EARTH","TEME","UTC","SGP4","2020-01-27T10:55:26.853024","14.79997164","0.00651650","75.7403","85.6683","218.1819","141.4743","0","U","35359","999","66193","0.00032671000000","0.00002542","0.0000000000000","7007.470","97.297","674.999","583.670","DEBRIS","SMALL","CIS","1993-03-25","PKMTR","","2690925","147412899","0 SL-18 DEB","1 35359U 93014BJ  20027.45517191  .00002542  00000-0  32671-3 0  9991","2 35359  75.7403  85.6683 0065165 218.1819 141.4743 14.79997164661938"
"2.0","GENERATED VIA SPACE-TRACK.ORG API","2020-01-27T17:45:22","18 SPCS","IRIDIUM 176","2019-002B","EARTH","TEME","UTC","SGP4","2020-01-27T04:01:09.195456","14.72255517","0.00020730","86.6092","248.5225","87.9996","272.1458","0","U","43923","999","5599","0.00001769800000","0.00000136","0.0000000000000","7032.013","97.809","655.336","652.421","PAYLOAD","LARGE","US","2019-01-11","AFWTR","","2690976","147433111","0 IRIDIUM 176","1 43923U 19002B   20027.16746754 +.00000136 +00000-0 +17698-4 0  9999","2 43923 086.6092 248.5225 0002073 087.9996 272.1458 14.72255517055998"
"2.0","GENERATED VIA SPACE-TRACK.ORG API","2020-01-27T06:30:17","18 SPCS","IRIDIUM 176","2019-002B","EARTH","TEME","UTC","SGP4","2020-01-27T02:23:16.795680","14.72255508","0.00020710","86.6092","248.5509","87.9640","272.1814","0","U","43923","999","5598","0.00001799200000","0.00000138","0.0000000000000","7032.013","97.809","655.335","652.422","PAYLOAD","LARGE","US","2019-01-11","AFWTR","","2690560","147404608","0 IRIDIUM 176","1 43923U 19002B   20027.09949995  .00000138  00000-0  17992-4 0  9992","2 43923  86.6092 248.5509 0002071  87.9640 272.1814 14.72255508 55982"
"2.0","GENERATED VIA SPACE-TRACK.ORG API","2020-01-27T02:30:26","18 SPCS","IRIDIUM 176","2019-002B","EARTH","TEME","UTC","SGP4","2020-01-26T18:13:54.801120","14.72255446","0.00020740","86.6093","248.6930","87.8587","272.2868","0","U","43923","999","5593","0.00001887200000","0.00000144","0.0000000000000","7032.014","97.809","655.337","652.420","PAYLOAD","LARGE","US","2019-01-11","AFWTR","","2690504","147402881","0 IRIDIUM 176","1 43923U 19002B   20026.75966205 +.00000144 +00000-0 +18872-4 0  9992","2 43923 086.6093 248.6930 0002074 087.8587 272.2868 14.72255446055930"
"2.0","GENERATED VIA SPACE-TRACK.ORG API","2020-01-26T14:30:18","18 SPCS","SL-18 DEB","1993-014BJ","EARTH","TEME","UTC","SGP4","2020-01-26T10:35:17.496672","14.79992071","0.00651770","75.7403","87.4569","220.5867","139.0451","0","U","35359","999","66178","0.00033758000000","0.00002627","0.0000000000000","7007.486","97.297","675.023","583.678","DEBRIS","SMALL","CIS","1993-03-25","PKMTR","","2690312","147345610","0 SL-18 DEB","1 35359U 93014BJ  20026.44117473  .00002627  00000-0  33758-3 0  9999","2 35359  75.7403  87.4569 0065177 220.5867 139.0451 14.79992071661788"
